GLOBALSTAR M075         
1 37192U 10054E   25125.98159192 -.00000074  00000+0  16337-3 0  9995
2 37192  51.9954 310.0433 0000760  98.7356  66.9742 12.62264427670511
GLOBALSTAR M073         
1 37193U 10054F   25125.55230333 -.00000095  00000+0  48492-4 0  9997
2 37193  52.0056 225.1376 0000497 148.9254 223.9493 12.62271154672459
GLOBALSTAR M083         
1 37739U 11033A   25125.83774096 -.00000107  00000+0 -16362-4 0  9997
2 37739  51.9837 173.0580 0000410 131.9242  39.0591 12.62263725641504
GLOBALSTAR M088         
1 37740U 11033B   25125.85855751 -.00000096  00000+0  45740-4 0  9997
2 37740  51.9733  78.5159 0000493  63.7779 323.0008 12.62265922637055
GLOBALSTAR M091         
1 37741U 11033C   25125.79453826 -.00000091  00000+0  71248-4 0  9995
2 37741  52.0018  42.1928 0000828  84.3525 310.5435 12.62267550637835
GLOBALSTAR M085         
1 37742U 11033D   25125.93484589 -.00000082  00000+0  11978-3 0  9995
2 37742  51.9889 352.8433 0000943  95.8862 277.1699 12.62268164638362
GLOBALSTAR M081         
1 37743U 11033E   25125.90494307 -.00000084  00000+0  11211-3 0  9994
2 37743  51.9982 355.6961 0000755 100.9715  15.5504 12.62263410638504
GLOBALSTAR M089         
1 37744U 11033F   25125.86991679 -.00000077  00000+0  14741-3 0  9997
2 37744  51.9938 310.0377 0000562  93.9195  44.3672 12.62269587639341
